[{"OBJECT_NAME":"STARLINK-31823","OBJECT_ID":"2024-093N","EPOCH":"2026-03-08T16:39:02.279232","MEAN_MOTION":15.27589278,"ECCENTRICITY":0.0002017,"INCLINATION":42.9987,"RA_OF_ASC_NODE":214.4702,"ARG_OF_PERICENTER":273.8979,"MEAN_ANOMALY":86.1642,"EPHEMERIS_TYPE":0,"CLASSIFICATION_TYPE":"U","NORAD_CAT_ID":59794,"ELEMENT_SET_NO":999,"REV_AT_EPOCH":10254,"BSTAR":2.0372724e-5,"MEAN_MOTION_DOT":2.98e-6,"MEAN_MOTION_DDOT":0},{"OBJECT_NAME":"CZ-6A DEB","OBJECT_ID":"2022-151ME","EPOCH":"2026-03-09T17:07:50.636064","MEAN_MOTION":15.20556855,"ECCENTRICITY":0.00283971,"INCLINATION":98.6182,"RA_OF_ASC_NODE":149.2426,"ARG_OF_PERICENTER":178.5587,"MEAN_ANOMALY":181.5732,"EPHEMERIS_TYPE":0,"CLASSIFICATION_TYPE":"U","NORAD_CAT_ID":54578,"ELEMENT_SET_NO":999,"REV_AT_EPOCH":10518,"BSTAR":0.0077423675,"MEAN_MOTION_DOT":0.00175116,"MEAN_MOTION_DDOT":0}]
